     2.100          NAVIGATION                              RINEX VERSION / TYPE
fic2rin                                 06/21/2014 00:22:18 PGM / RUN BY / DATE
                                                            END OF HEADER
18 14  6 20 21 59 44.0  .326704233885D-03  .238742359215D-11  .000000000000D+00
     .100000000000D+02  .480312500000D+02  .509164065870D-08 -.165920955105D+01
     .241585075855D-05  .154127667192D-01  .108722597361D-04  .515370536041D+04
     .511184000000D+06  .417232513428D-06 -.104122147428D+01  .298023223877D-07
     .925507247960D+00  .150156250000D+03 -.203037218330D+01 -.811498087867D-08
    -.145720355552D-09  .100000000000D+01  .179700000000D+04  .000000000000D+00
     .240000000000D+01  .000000000000D+00 -.111758708954D-07  .100000000000D+02
     .504006000000D+06  .400000000000D+01
32 14  6 20 21 59 44.0 -.402533449233D-03  .829913915368D-11  .000000000000D+00
     .270000000000D+02  .336875000000D+02  .475376944215D-08  .823329019347D+00
     .179745256901D-05  .113822083222D-01  .100117176771D-04  .515371697998D+04
     .511184000000D+06  .244006514549D-06 -.946582135048D+00  .150874257088D-06
     .947478163594D+00  .177000000000D+03 -.144495998450D+00 -.812355266429D-08
    -.147863301957D-09  .100000000000D+01  .179700000000D+04  .000000000000D+00
     .240000000000D+01  .000000000000D+00 -.325962901115D-08  .270000000000D+02
     .504006000000D+06  .400000000000D+01
 1 14  6 20 22  0  0.0  .157849863172D-04  .909494701773D-12  .000000000000D+00
     .200000000000D+02 -.443125000000D+02  .482270088485D-08  .906156579527D+00
    -.212900340557D-05  .316066469532D-02  .735931098461D-05  .515367665291D+04
     .511200000000D+06  .260770320892D-07 -.207355349759D+01 -.130385160446D-07
     .960779336613D+00  .233781250000D+03  .319488215395D+00 -.822819988041D-08
    -.357514891930D-09  .100000000000D+01  .179700000000D+04  .000000000000D+00
     .240000000000D+01  .000000000000D+00  .558793544769D-08  .200000000000D+02
     .504006000000D+06  .400000000000D+01
 2 14  6 20 22  0  0.0  .502253416926D-03  .216004991671D-11  .000000000000D+00
     .810000000000D+02 -.421250000000D+02  .529343477852D-08  .153058398720D+01
    -.216066837311D-05  .136024182430D-01  .809505581856D-05  .515362226868D+04
     .511200000000D+06 -.277534127235D-06 -.210370605614D+01  .184401869774D-06
     .939339950319D+00  .218000000000D+03 -.241353982267D+01 -.850178270480D-08
    -.421446126351D-09  .100000000000D+01  .179700000000D+04  .000000000000D+00
     .240000000000D+01  .000000000000D+00 -.204890966415D-07  .810000000000D+02
     .504006000000D+06  .400000000000D+01
 3 14  6 20 22  0  0.0  .380489509553D-03  .477484718431D-11  .000000000000D+00
     .890000000000D+02  .468750000000D+00  .531236413843D-08  .161753932581D+01
    -.273808836937D-06  .171397709055D-01  .701844692230D-05  .515380226517D+04
     .511200000000D+06 -.176951289177D-06  .300495056930D+01 -.471249222755D-06
     .938946856917D+00  .234218750000D+03  .139224666759D+01 -.841535053313D-08
     .402159608705D-09  .100000000000D+01  .179700000000D+04  .000000000000D+00
     .340000000000D+01  .000000000000D+00 -.465661287308D-08  .890000000000D+02
     .504006000000D+06  .400000000000D+01
 4 14  6 20 22  0  0.0  .732811167836D-05  .113686837722D-12  .000000000000D+00
     .290000000000D+02 -.384687500000D+02  .525200448135D-08 -.124474805611D+01
    -.194087624550D-05  .107062624302D-01  .750087201595D-05  .515194918442D+04
     .511200000000D+06  .156462192535D-06 -.208771755235D+01  .247731804848D-06
     .938345907725D+00  .221687500000D+03  .104345427640D+01 -.838320633705D-08
    -.348943106310D-09  .100000000000D+01  .179700000000D+04  .000000000000D+00
     .240000000000D+01  .000000000000D+00 -.651925802231D-08  .290000000000D+02
     .504006000000D+06  .400000000000D+01
 5 14  6 20 22  0  0.0 -.364241655916D-03  .284217094304D-11  .000000000000D+00
     .230000000000D+02  .500312500000D+02  .462233539597D-08 -.237360558526D+01
     .256113708019D-05  .359257170931D-02  .109039247036D-04  .515362330818D+04
     .511200000000D+06 -.111758708954D-07 -.103542575272D+01  .372529029846D-07
     .946946449926D+00  .162656250000D+03  .300943219836D+00 -.800640492747D-08
    -.721458623076D-10  .100000000000D+01  .179700000000D+04  .000000000000D+00
     .240000000000D+01  .000000000000D+00 -.102445483208D-07  .230000000000D+02
     .504006000000D+06  .400000000000D+01
 6 14  6 20 22  0  0.0  .580865889788D-05 -.261479726760D-11  .000000000000D+00
     .440000000000D+02 -.405937500000D+02  .469519557374D-08 -.271576831552D+01
    -.219047069550D-05  .357442302629D-03  .800192356110D-05  .515353085327D+04
     .511200000000D+06 -.204890966415D-07 -.208213058775D+01  .353902578354D-07
     .960719684665D+00  .226375000000D+03  .234115748588D+01 -.806212153401D-08
    -.348228790841D-09  .100000000000D+01  .179700000000D+04  .000000000000D+00
     .240000000000D+01  .000000000000D+00  .605359673500D-08  .440000000000D+02
     .504006000000D+06  .400000000000D+01
 7 14  6 20 22  0  0.0  .359884463251D-03  .432009983342D-11  .000000000000D+00
     .990000000000D+02 -.309062500000D+02  .426624913497D-08  .286030014961D+00
    -.158697366714D-05  .749910576269D-02  .545382499695D-05  .515362755966D+04
     .511200000000D+06  .596046447754D-07  .108676485559D+01  .987201929092D-07
     .973235773919D+00  .281625000000D+03 -.283278601794D+01 -.819498421113D-08
    -.129291099779D-09  .100000000000D+01  .179700000000D+04  .000000000000D+00
     .340000000000D+01  .000000000000D+00 -.107102096081D-07  .990000000000D+02
     .504006000000D+06  .400000000000D+01
 8 14  6 20 22  0  0.0  .143321231008D-04  .341060513165D-12  .000000000000D+00
     .950000000000D+02 -.366875000000D+02  .377801451233D-08 -.159950462533D+00
    -.179931521416D-05  .138203050010D-01  .620447099209D-05  .515335318756D+04
     .511200000000D+06  .119209289551D-06  .118675993059D+01  .147148966789D-06
     .996488135571D+00  .278656250000D+03 -.276985030933D+01 -.802390565645D-08
    -.118933525487D-09  .100000000000D+01  .179700000000D+04  .000000000000D+00
     .240000000000D+01  .000000000000D+00 -.419095158577D-08  .950000000000D+02
     .504006000000D+06  .400000000000D+01
 9 14  6 20 22  0  0.0  .381530262530D-04  .666204869049D-10  .000000000000D+00
     .410000000000D+02 -.402500000000D+02  .403802534282D-08  .131366092323D+01
    -.242702662945D-05  .171731191222D-01  .567920506001D-05  .515367766380D+04
     .511200000000D+06  .113621354103D-06  .106656067248D+01 -.389292836189D-06
     .981778876105D+00  .280406250000D+03  .182518241429D+01 -.803104881113D-08
    -.119647840956D-09  .100000000000D+01  .179700000000D+04  .000000000000D+00
     .340000000000D+01  .630000000000D+02 -.605359673500D-08  .410000000000D+02
     .504006000000D+06  .400000000000D+01
10 14  6 20 22  0  0.0 -.130509492010D-03 -.147792889038D-11  .000000000000D+00
     .380000000000D+02  .475000000000D+02  .469733852015D-08 -.218903701733D+01
     .241398811340D-05  .136101937387D-01  .997260212898D-05  .515374006844D+04
     .511200000000D+06  .651925802231D-07 -.101829638788D+01 -.126659870148D-06
     .941755217828D+00  .177468750000D+03  .868009649115D+00 -.785104131310D-08
    -.200008331150D-10  .100000000000D+01  .179700000000D+04  .000000000000D+00
     .340000000000D+01  .000000000000D+00 -.279396772385D-08  .380000000000D+02
     .504006000000D+06  .400000000000D+01
11 14  6 20 22  0  0.0 -.498929060996D-03 -.306954461848D-11  .000000000000D+00
     .740000000000D+02 -.355000000000D+02  .671063666781D-08  .440869171925D+00
    -.164099037647D-05  .150544157950D-01  .568479299545D-05  .515369888878D+04
     .511200000000D+06 -.152736902237D-06 -.239934581758D+01  .316649675369D-07
     .890738904908D+00  .234812500000D+03  .129477428509D+01 -.943575017973D-08
    -.207151485834D-09  .100000000000D+01  .179700000000D+04  .000000000000D+00
     .240000000000D+01  .000000000000D+00 -.121071934700D-07  .740000000000D+02
     .504006000000D+06  .400000000000D+01
12 14  6 20 22  0  0.0  .212867744267D-03  .250111042988D-11  .000000000000D+00
     .340000000000D+02 -.175000000000D+02  .394659296287D-08 -.184080980260D+00
    -.784173607826D-06  .515124516096D-02  .102650374174D-04  .515360629082D+04
     .511200000000D+06  .670552253723D-07  .215049634544D+01  .633299350739D-07
     .987684176073D+00  .199718750000D+03  .465219061533D+00 -.781103964687D-08
     .287511976028D-09  .100000000000D+01  .179700000000D+04  .000000000000D+00
     .240000000000D+01  .000000000000D+00 -.121071934700D-07  .340000000000D+02
     .504006000000D+06  .400000000000D+01
13 14  6 20 22  0  0.0 -.125225633383D-04 -.386535248253D-11  .000000000000D+00
     .820000000000D+02  .620937500000D+02  .413374361559D-08  .259400536182D+01
     .331178307533D-05  .536648777779D-02  .520981848240D-05  .515357664490D+04
     .511200000000D+06  .260770320892D-07  .122687418446D+00  .651925802231D-07
     .977661172792D+00  .287812500000D+03  .229202582837D+01 -.796961768085D-08
     .303584074067D-10  .100000000000D+01  .179700000000D+04  .000000000000D+00
     .240000000000D+01  .000000000000D+00 -.111758708954D-07  .820000000000D+02
     .504006000000D+06  .400000000000D+01
14 14  6 20 22  0  0.0  .161767005920D-03 -.352429196937D-11  .000000000000D+00
     .610000000000D+02  .671562500000D+02  .426267755763D-08  .296745487589D+01
     .347569584846D-05  .763455487322D-02  .539980828762D-05  .515367488480D+04
     .511200000000D+06  .111758708954D-07  .906700899160D-01 -.651925802231D-07
     .970212229462D+00  .278281250000D+03 -.200168227364D+01 -.800533345427D-08
     .160720980388D-09  .100000000000D+01  .179700000000D+04  .000000000000D+00
     .240000000000D+01  .000000000000D+00 -.931322574615D-08  .610000000000D+02
     .504006000000D+06  .400000000000D+01
